OBJECT_NAME,OBJECT_ID,EPOCH,MEAN_MOTION,ECCENTRICITY,INCLINATION,RA_OF_ASC_NODE,ARG_OF_PERICENTER,MEAN_ANOMALY,EPHEMERIS_TYPE,CLASSIFICATION_TYPE,NORAD_CAT_ID,ELEMENT_SET_NO,REV_AT_EPOCH,BSTAR,MEAN_MOTION_DOT,MEAN_MOTION_DDOT
FENGYUN 3D,2017-072A,2026-07-19T13:34:35.684256,14.19744494,.00012806,99.0152,175.5767,5.5831,354.5359,0,U,43010,999,44958,.11521939E-4,-.22E-6,0
NOAA 20 (JPSS-1),2017-073A,2026-07-19T13:35:00.539808,14.19516967,.00015401,98.7772,139.7419,119.8594,240.2736,0,U,43013,999,44906,.3263127E-4,.25E-6,0
GOES 17,2018-022A,2026-07-19T12:45:04.387392,1.00271551,.00005227,1.0182,85.1948,61.9092,251.9790,0,U,43226,999,3074,0,-.187E-5,0
SENTINEL-3B,2018-039A,2026-07-19T10:47:11.657472,14.26737093,.00012443,98.6233,267.5162,118.7151,241.4154,0,U,43437,999,42872,.33690329E-4,.38E-6,0
FENGYUN 2H,2018-050A,2026-07-19T13:33:09.599616,1.00266982,.0002154,3.1130,78.6970,132.1014,8.9037,0,U,43491,999,2976,0,-.131E-5,0
METOP-C,2018-087A,2026-07-19T14:05:14.824032,14.21503573,.00021107,98.6626,259.5954,88.0938,272.0482,0,U,43689,999,39943,.32371089E-4,.27E-6,0
GEO-KOMPSAT-2A,2018-100A,2026-07-19T12:04:29.429760,1.00272684,.00023425,0.0292,151.1707,306.6538,148.8455,0,U,43823,999,2795,0,-.348E-5,0
METEOR-M2 2,2019-038A,2026-07-19T13:23:14.904960,14.24373189,.00004589,98.9168,188.3241,355.5966,4.5208,0,U,44387,999,36590,-.33928161E-4,-.124E-5,0
ARKTIKA-M 1,2021-016A,2026-07-14T09:46:38.558208,2.00611590,.7297332,63.2662,53.6722,270.0591,14.4994,0,U,47719,999,3933,0,-.301E-5,0
FENGYUN 3E,2021-062A,2026-07-19T14:47:41.584128,14.19906700,.00020614,98.7504,203.6640,31.0891,329.0407,0,U,49008,999,26118,-.2585936E-5,-.49E-6,0
GOES 18,2022-021A,2026-07-19T11:54:38.662848,1.00271792,.00006336,0.0153,90.5430,67.3724,181.0390,0,U,51850,999,691,0,0,0
NOAA 21 (JPSS-2),2022-150A,2026-07-19T14:21:24.962112,14.19541471,.00029118,98.7059,138.8431,96.7517,263.3991,0,U,54234,999,19114,.24998775E-4,.9E-7,0
METEOSAT-12 (MTG-I1),2022-170C,2026-07-19T08:02:31.693920,1.00268969,.00039984,0.7295,20.4589,81.1274,315.7994,0,U,54743,999,1330,0,-.14E-6,0
TIANMU-1 03,2023-039A,2026-07-19T13:41:37.326624,15.48120131,.00022013,97.5250,15.8313,11.5203,348.6097,0,U,55973,999,18584,.16951537E-3,.8799E-4,0
TIANMU-1 04,2023-039B,2026-07-19T13:08:00.087936,15.48749818,.00025678,97.5191,14.9634,355.5226,4.6001,0,U,55974,999,18585,.17237582E-3,.9149E-4,0
TIANMU-1 05,2023-039C,2026-07-19T14:49:17.443200,15.48045483,.00025711,97.5235,15.4831,34.7621,325.3796,0,U,55975,999,18583,.16232189E-3,.8399E-4,0
TIANMU-1 06,2023-039D,2026-07-19T13:15:53.131392,15.48645110,.00026256,97.5243,16.0843,24.5702,335.5673,0,U,55976,999,18585,.16508867E-3,.8726E-4,0
FENGYUN 3G,2023-055A,2026-07-19T12:40:56.340768,15.53913083,.00068909,49.9915,179.2049,76.3767,283.7968,0,U,56232,999,18503,.20722836E-3,.13188E-3,0
METEOR-M2 3,2023-091A,2026-07-19T15:07:01.695936,14.24049133,.00051048,98.6065,254.9412,80.4785,279.6971,0,U,57166,999,15913,.2188732E-5,-.38E-6,0
TIANMU-1 07,2023-101A,2026-07-19T14:31:15.093120,15.30144272,.0003442,97.2573,250.5329,55.5251,304.6314,0,U,57399,999,16660,.1080384E-3,.3077E-4,0
TIANMU-1 08,2023-101B,2026-07-19T13:43:05.579040,15.30147524,.00041815,97.2561,250.2661,34.5692,325.5821,0,U,57400,999,16659,.10861603E-3,.3095E-4,0
TIANMU-1 09,2023-101C,2026-07-19T14:52:16.034592,15.30190047,.00040287,97.2520,249.7124,54.5985,305.5632,0,U,57401,999,16660,.11241219E-3,.321E-4,0
TIANMU-1 10,2023-101D,2026-07-19T14:06:30.399840,15.30163480,.0005257,97.2599,250.7650,42.2963,317.8683,0,U,57402,999,16659,.11425937E-3,.3261E-4,0
FENGYUN 3F,2023-111A,2026-07-19T14:23:24.301248,14.19943888,.0001191,98.6822,270.0020,75.4069,284.7240,0,U,57490,999,15346,.22795561E-4,.5E-7,0
ARKTIKA-M 2,2023-198A,2026-07-15T04:12:00.091584,2.00608092,.69107365,63.2178,151.2342,267.3397,18.7345,0,U,58584,999,1888,0,.129E-5,0
TIANMU-1 11,2023-205A,2026-07-19T14:50:50.038080,15.27288519,.00069897,97.3444,221.6721,242.2739,117.7791,0,U,58645,999,14247,.10139071E-3,.2638E-4,0
TIANMU-1 12,2023-205B,2026-07-18T09:53:22.905024,15.27114343,.00060948,97.3431,220.2298,220.4884,139.5903,0,U,58646,999,14227,.10886909E-3,.2823E-4,0
TIANMU-1 13,2023-205C,2026-07-19T13:25:37.307712,15.27113422,.00062935,97.3460,221.6406,195.0957,165.0095,0,U,58647,999,14244,.10630036E-3,.2754E-4,0
TIANMU-1 14,2023-205D,2026-07-19T14:37:19.320096,15.27157629,.00068965,97.3397,220.8460,202.3281,157.7659,0,U,58648,999,14245,.10501942E-3,.2724E-4,0
TIANMU-1 19,2023-208A,2026-07-19T13:22:19.227072,15.32014714,.00050501,97.4527,317.0372,182.5137,177.6080,0,U,58660,999,14228,.14391939E-3,.437E-4,0
