FENGYUN 3D              
1 43010U 17072A   26200.56569079 -.00000022  00000+0  11522-4 0  9991
2 43010  99.0152 175.5767 0001280   5.5831 354.5359 14.19744494449588
NOAA 20 (JPSS-1)        
1 43013U 17073A   26200.56597847  .00000025  00000+0  32631-4 0  9995
2 43013  98.7772 139.7419 0001540 119.8594 240.2736 14.19516967449060
GOES 17                 
1 43226U 18022A   26200.53130078 -.00000187  00000+0  00000+0 0  9992
2 43226   1.0182  85.1948 0000522  61.9092 251.9790  1.00271551 30741
SENTINEL-3B             
1 43437U 18039A   26200.44944048  .00000038  00000+0  33690-4 0  9994
2 43437  98.6233 267.5162 0001244 118.7151 241.4154 14.26737093428724
FENGYUN 2H              
1 43491U 18050A   26200.56469444 -.00000131  00000+0  00000+0 0  9991
2 43491   3.1130  78.6970 0002154 132.1014   8.9037  1.00266982 29767
METOP-C                 
1 43689U 18087A   26200.58697713  .00000027  00000+0  32371-4 0  9998
2 43689  98.6626 259.5954 0002110  88.0938 272.0482 14.21503573399432
GEO-KOMPSAT-2A          
1 43823U 18100A   26200.50311840 -.00000348  00000+0  00000+0 0  9996
2 43823   0.0292 151.1707 0002342 306.6538 148.8455  1.00272684 27957
METEOR-M2 2             
1 44387U 19038A   26200.55781140 -.00000124  00000+0 -33928-4 0  9995
2 44387  98.9168 188.3241 0000458 355.5966   4.5208 14.24373189365906
ARKTIKA-M 1             
1 47719U 21016A   26195.40739072 -.00000301  00000+0  00000+0 0  9996
2 47719  63.2662  53.6722 7297332 270.0591  14.4994  2.00611590 39330
FENGYUN 3E              
1 49008U 21062A   26200.61645352 -.00000049  00000+0 -25859-5 0  9992
2 49008  98.7504 203.6640 0002061  31.0891 329.0407 14.19906700261188
GOES 18                 
1 51850U 22021A   26200.49628082  .00000000  00000+0  00000+0 0  9993
2 51850   0.0153  90.5430 0000633  67.3724 181.0390  1.00271792  6919
NOAA 21 (JPSS-2)        
1 54234U 22150A   26200.59820558  .00000009  00000+0  24999-4 0  9995
2 54234  98.7059 138.8431 0002911  96.7517 263.3991 14.19541471191140
METEOSAT-12 (MTG-I1)    
1 54743U 22170C   26200.33508905 -.00000014  00000+0  00000+0 0  9992
2 54743   0.7295  20.4589 0003998  81.1274 315.7994  1.00268969 13304
TIANMU-1 03             
1 55973U 23039A   26200.57057091  .00008799  00000+0  16952-3 0  9998
2 55973  97.5250  15.8313 0002201  11.5203 348.6097 15.48120131185846
TIANMU-1 04             
1 55974U 23039B   26200.54722324  .00009149  00000+0  17238-3 0  9992
2 55974  97.5191  14.9634 0002567 355.5226   4.6001 15.48749818185852
TIANMU-1 05             
1 55975U 23039C   26200.61756300  .00008399  00000+0  16232-3 0  9991
2 55975  97.5235  15.4831 0002571  34.7621 325.3796 15.48045483185836
TIANMU-1 06             
1 55976U 23039D   26200.55269828  .00008726  00000+0  16509-3 0  9990
2 55976  97.5243  16.0843 0002625  24.5702 335.5673 15.48645110185855
FENGYUN 3G              
1 56232U 23055A   26200.52842987  .00013188  00000+0  20723-3 0  9995
2 56232  49.9915 179.2049 0006890  76.3767 283.7968 15.53913083185036
METEOR-M2 3             
1 57166U 23091A   26200.62988074 -.00000038  00000+0  21887-5 0  9996
2 57166  98.6065 254.9412 0005104  80.4785 279.6971 14.24049133159131
TIANMU-1 07             
1 57399U 23101A   26200.60503580  .00003077  00000+0  10804-3 0  9999
2 57399  97.2573 250.5329 0003442  55.5251 304.6314 15.30144272166609
TIANMU-1 08             
1 57400U 23101B   26200.57159235  .00003095  00000+0  10862-3 0  9996
2 57400  97.2561 250.2661 0004181  34.5692 325.5821 15.30147524166598
TIANMU-1 09             
1 57401U 23101C   26200.61963003  .00003210  00000+0  11241-3 0  9999
2 57401  97.2520 249.7124 0004028  54.5985 305.5632 15.30190047166606
TIANMU-1 10             
1 57402U 23101D   26200.58785185  .00003261  00000+0  11426-3 0  9990
2 57402  97.2599 250.7650 0005257  42.2963 317.8683 15.30163480166595
FENGYUN 3F              
1 57490U 23111A   26200.59958682  .00000005  00000+0  22796-4 0  9999
2 57490  98.6822 270.0020 0001191  75.4069 284.7240 14.19943888153467
ARKTIKA-M 2             
1 58584U 23198A   26196.17500106  .00000129  00000+0  00000+0 0  9997
2 58584  63.2178 151.2342 6910736 267.3397  18.7345  2.00608092 18886
TIANMU-1 11             
1 58645U 23205A   26200.61863470  .00002638  00000+0  10139-3 0  9990
2 58645  97.3444 221.6721 0006989 242.2739 117.7791 15.27288519142472
TIANMU-1 12             
1 58646U 23205B   26199.41207066  .00002823  00000+0  10887-3 0  9995
2 58646  97.3431 220.2298 0006094 220.4884 139.5903 15.27114343142277
TIANMU-1 13             
1 58647U 23205C   26200.55945958  .00002754  00000+0  10630-3 0  9992
2 58647  97.3460 221.6406 0006293 195.0957 165.0095 15.27113422142447
TIANMU-1 14             
1 58648U 23205D   26200.60925139  .00002724  00000+0  10502-3 0  9993
2 58648  97.3397 220.8460 0006896 202.3281 157.7659 15.27157629142451
TIANMU-1 19             
1 58660U 23208A   26200.55716698  .00004370  00000+0  14392-3 0  9992
2 58660  97.4527 317.0372 0005050 182.5137 177.6080 15.32014714142285
